0 FENGYUN 1C DEB
1 36214U 99025DUP 21054.17211206  .00001957  00000-0  86639-3 0  9990
2 36214  99.0584 188.7754 0057422 336.2447  23.6082 14.23503604675885
0 FENGYUN 1C DEB
1 36218U 99025DUT 21057.28864167  .00000508  00000-0  14065-3 0  9994
2 36218  99.0966  89.5663 0106463 183.0143 177.0419 14.48307239336785
0 FENGYUN 1C DEB
1 36222U 99025DUX 21057.38012161  .00000848  00000-0  36504-3 0  9998
2 36222  98.6645 118.4438 0059906 194.4617 165.4851 14.26260107400817
0 FENGYUN 1C DEB
1 36223U 99025DUY 21056.71796037  .00001844  00000-0  95079-3 0  9995
2 36223  98.3646  45.3583 0125131 319.3414  39.8467 14.12307776683563
0 FENGYUN 1C DEB
1 36224U 99025DUZ 21055.85717669  .00000004  00000-0  25953-4 0  9996
2 36224  99.0230  93.9402 0115294 265.5920  93.2071 14.11716249609610
0 FENGYUN 1C DEB
1 36226U 99025DVB 21040.53839641  .00000449  00000-0  31460-3 0  9994
2 36226  98.6726 142.5427 0108195 305.7102  53.4034 14.00545059637947
0 FENGYUN 1C DEB
1 36229U 99025DVE 21057.86186159  .00000484  00000-0  37849-3 0  9996
2 36229 100.9196 282.6608 0125192 322.0782  48.0976 13.95067863387804
0 FENGYUN 1C DEB
1 36230U 99025DVF 21058.03357067  .00000598  00000-0  63652-3 0  9993
2 36230  99.6019 120.6856 0226957 344.5083  14.9193 13.67705880665498
0 FENGYUN 1C DEB
1 36232U 99025DVH 21055.78042796  .00000136  00000-0  94915-4 0  9999
2 36232  98.6749  80.5968 0121396 328.6425  30.7546 14.09970339370313
0 FENGYUN 1C DEB
1 36234U 99025DVK 21057.44589317  .00000119  00000-0  19558-3 0  9991
2 36234  98.9728 290.4593 0319727 123.1006 240.1252 13.44268178644214
0 FENGYUN 1C DEB
1 36236U 99025DVM 21057.08107336  .00000070  00000-0  97897-4 0  9999
2 36236  98.9590 169.7169 0151807  14.2827 346.2548 13.80442228355837
0 FENGYUN 1C DEB
1 36241U 99025DVS 21057.88887953  .00003854  00000-0  20294-3 0  9992
2 36241  98.2940 293.9873 0170362  84.3850 277.6774 15.04583708651775
0 FENGYUN 1C DEB
1 36242U 99025DVT 21051.85671351  .00000378  00000-0  25285-3 0  9990
2 36242  98.1510 272.2741 0074304 334.7130  25.0409 14.04797421322193
0 FENGYUN 1C DEB
1 36244U 99025DVV 21057.66559853  .00000652  00000-0  37867-3 0  9993
2 36244  98.9386 144.1596 0059968 219.6306 140.0475 14.11386756672107
0 FENGYUN 1C DEB
1 36248U 99025DVZ 21057.44568345  .00001034  00000-0  78941-3 0  9992
2 36248  98.1586 125.4448 0210536  51.2279 310.7483 13.85403626617832
0 FENGYUN 1C DEB
1 36254U 99025DWF 21054.22728279  .00001171  00000-0  26305-3 0  9995
2 36254  99.5865  49.2472 0121620 337.6551  21.9369 14.54536381350226
0 FENGYUN 1C DEB
1 36255U 99025DWG 21056.54615653  .00000419  00000-0  18339-3 0  9996
2 36255  99.4277 160.7772 0074674 143.6490 228.3481 14.28079487389622
0 FENGYUN 1C DEB
1 36259U 99025DWL 21058.16014074  .00001022  00000-0  44306-3 0  9994
2 36259  98.8209 128.0385 0006483  86.4988 300.3026 14.26471450633026
