OBJECT_NAME,OBJECT_ID,EPOCH,MEAN_MOTION,ECCENTRICITY,INCLINATION,RA_OF_ASC_NODE,ARG_OF_PERICENTER,MEAN_ANOMALY,EPHEMERIS_TYPE,CLASSIFICATION_TYPE,NORAD_CAT_ID,ELEMENT_SET_NO,REV_AT_EPOCH,BSTAR,MEAN_MOTION_DOT,MEAN_MOTION_DDOT
FENGYUN 1C DEB,1999-025DUP,2021-02-23T04:07:50.481984,14.23503604,.0057422,99.0584,188.7754,336.2447,23.6082,0,U,36214,999,67588,.86639E-3,.1957E-4,0
FENGYUN 1C DEB,1999-025DUT,2021-02-26T06:55:38.640288,14.48307239,.0106463,99.0966,89.5663,183.0143,177.0419,0,U,36218,999,33678,.14065E-3,.508E-5,0
FENGYUN 1C DEB,1999-025DUX,2021-02-26T09:07:22.507104,14.26260107,.0059906,98.6645,118.4438,194.4617,165.4851,0,U,36222,999,40081,.36504E-3,.848E-5,0
FENGYUN 1C DEB,1999-025DUY,2021-02-25T17:13:51.775968,14.12307776,.0125131,98.3646,45.3583,319.3414,39.8467,0,U,36223,999,68356,.95079E-3,.1844E-4,0
FENGYUN 1C DEB,1999-025DUZ,2021-02-24T20:34:20.066016,14.11716249,.0115294,99.0230,93.9402,265.5920,93.2071,0,U,36224,999,60961,.25953E-4,.4E-7,0
FENGYUN 1C DEB,1999-025DVB,2021-02-09T12:55:17.449824,14.00545059,.0108195,98.6726,142.5427,305.7102,53.4034,0,U,36226,999,63794,.3146E-3,.449E-5,0
FENGYUN 1C DEB,1999-025DVE,2021-02-26T20:41:04.841376,13.95067863,.0125192,100.9196,282.6608,322.0782,48.0976,0,U,36229,999,38780,.37849E-3,.484E-5,0
FENGYUN 1C DEB,1999-025DVF,2021-02-27T00:48:20.505888,13.67705880,.0226957,99.6019,120.6856,344.5083,14.9193,0,U,36230,999,37918,.63652E-3,.598E-5,0
FENGYUN 1C DEB,1999-025DVH,2021-02-24T18:43:48.975744,14.09970339,.0121396,98.6749,80.5968,328.6425,30.7546,0,U,36232,999,37031,.94915E-4,.136E-5,0
FENGYUN 1C DEB,1999-025DVK,2021-02-26T10:42:05.169888,13.44268178,.0319727,98.9728,290.4593,123.1006,240.1252,0,U,36234,999,64421,.19558E-3,.119E-5,0
FENGYUN 1C DEB,1999-025DVM,2021-02-26T01:56:44.738304,13.80442228,.0151807,98.9590,169.7169,14.2827,346.2548,0,U,36236,999,35583,.97897E-4,.7E-6,0
FENGYUN 1C DEB,1999-025DVS,2021-02-26T21:19:59.191392,15.04583708,.0170362,98.2940,293.9873,84.3850,277.6774,0,U,36241,999,65177,.20294E-3,.3854E-4,0
FENGYUN 1C DEB,1999-025DVT,2021-02-20T20:33:40.047264,14.04797421,.0074304,98.1510,272.2741,334.7130,25.0409,0,U,36242,999,32219,.25285E-3,.378E-5,0
FENGYUN 1C DEB,1999-025DVV,2021-02-26T15:58:27.712992,14.11386756,.0059968,98.9386,144.1596,219.6306,140.0475,0,U,36244,999,67210,.37867E-3,.652E-5,0
FENGYUN 1C DEB,1999-025DVZ,2021-02-26T10:41:47.050080,13.85403626,.0210536,98.1586,125.4448,51.2279,310.7483,0,U,36248,999,61783,.78941E-3,.1034E-4,0
FENGYUN 1C DEB,1999-025DWF,2021-02-23T05:27:17.233056,14.54536381,.012162,99.5865,49.2472,337.6551,21.9369,0,U,36254,999,35022,.26305E-3,.1171E-4,0
FENGYUN 1C DEB,1999-025DWG,2021-02-25T13:06:27.924192,14.28079487,.0074674,99.4277,160.7772,143.6490,228.3481,0,U,36255,999,38962,.18339E-3,.419E-5,0
FENGYUN 1C DEB,1999-025DWL,2021-02-27T03:50:36.159936,14.26471450,.0006483,98.8209,128.0385,86.4988,300.3026,0,U,36259,999,47042,.44306E-3,.1022E-4,0
